ONEWEB-0056             
1 45159U 20008AE  24201.92050652  .00000676  00000+0  19010-2 0  9993
2 45159  87.8952 174.9386 0002246  85.8353 274.3031 13.10372467216866
ONEWEB-0057             
1 45160U 20008AF  24202.15621721  .00000504  00000+0  14068-2 0  9990
2 45160  87.8955 174.8941 0002147  82.4742 277.6629 13.10370852217554
ONEWEB-0058             
1 45161U 20008AG  24202.21943784  .00000584  00000+0  16365-2 0  9994
2 45161  87.8951 174.9148 0002026  79.8429 280.2927 13.10374216217895
ONEWEB-0059             
1 45162U 20008AH  24201.91054513  .00000559  00000+0  15664-2 0  9997
2 45162  87.8957 174.9573 0001958  80.7853 279.3496 13.10373896217005
ONEWEB-0062             
1 45163U 20008AJ  24201.93708972 -.00000105  00000+0 -33780-3 0  9994
2 45163  87.8949 174.9365 0001678  84.9925 275.1393 13.10369247216870
ONEWEB-0065             
1 45164U 20008AK  24202.22096152  .00000642  00000+0  18032-2 0  9994
2 45164  87.8960 174.8880 0002222  86.7646 273.3736 13.10374251217346
ONEWEB-0066             
1 45424U 20020A   24202.17569926  .00000510  00000+0  14026-2 0  9998
2 45424  87.8987 159.7989 0002300  72.6728 287.4651 13.11418982211334
ONEWEB-0067             
1 45425U 20020B   24202.13683224 -.00000513  00000+0 -14820-2 0  9990
2 45425  87.8972 159.7643 0002315  79.4181 280.7207 13.11415305211384
